{
  "norad_id": 57373,
  "name": "STARLINK-6370",
  "history": [
    {
      "epoch": "2026-03-28T20:00:01.999872Z",
      "apogee_km": 535.3257270952663,
      "perigee_km": 531.2864033102405,
      "latitude_deg": 24.34834786610066,
      "longitude_deg": 34.64357268031714,
      "height_km": 534.9598225999575,
      "semi_major_axis_km": 6911.443065202753,
      "eccentricity": 0.00029222,
      "inclination_deg": 43.0005,
      "raan_deg": 132.044,
      "arg_perigee_deg": 239.419,
      "mean_anomaly_deg": 157.6199,
      "mean_motion_rev_day": 15.10948493
    },
    {
      "epoch": "2026-03-29T04:00:01.999584Z",
      "apogee_km": 534.7150076405205,
      "perigee_km": 531.2815556326032,
      "latitude_deg": 32.74454359134713,
      "longitude_deg": -73.07253588550729,
      "height_km": 535.4880834479201,
      "semi_major_axis_km": 6911.135281636562,
      "eccentricity": 0.0002484,
      "inclination_deg": 43.0009,
      "raan_deg": 130.2124,
      "arg_perigee_deg": 265.1854,
      "mean_anomaly_deg": 147.0247,
      "mean_motion_rev_day": 15.11049428
    },
    {
      "epoch": "2026-03-30T04:00:01.999584Z",
      "apogee_km": 533.9810807752028,
      "perigee_km": 531.8704422078445,
      "latitude_deg": 42.59771741613186,
      "longitude_deg": -21.555146336539426,
      "height_km": 536.991604357102,
      "semi_major_axis_km": 6911.062761491524,
      "eccentricity": 0.0001527,
      "inclination_deg": 43.0004,
      "raan_deg": 124.7082,
      "arg_perigee_deg": 264.6344,
      "mean_anomaly_deg": 193.6807,
      "mean_motion_rev_day": 15.11073212
    },
    {
      "epoch": "2026-03-30T06:00:02.000160Z",
      "apogee_km": 533.9653864821785,
      "perigee_km": 531.8967655856595,
      "latitude_deg": -8.349577677842031,
      "longitude_deg": 35.60368775024214,
      "height_km": 533.9228241082955,
      "semi_major_axis_km": 6911.068076033919,
      "eccentricity": 0.00014966,
      "inclination_deg": 43.0003,
      "raan_deg": 124.2513,
      "arg_perigee_deg": 268.3961,
      "mean_anomaly_deg": 283.7593,
      "mean_motion_rev_day": 15.11071469
    },
    {
      "epoch": "2026-03-30T14:00:03.000384Z",
      "apogee_km": 534.1122857409146,
      "perigee_km": 531.8967119992076,
      "latitude_deg": -18.55675052724115,
      "longitude_deg": -74.59295711816199,
      "height_km": 536.5759443784931,
      "semi_major_axis_km": 6911.141498870061,
      "eccentricity": 0.00016029,
      "inclination_deg": 43.0004,
      "raan_deg": 122.4145,
      "arg_perigee_deg": 276.184,
      "mean_anomaly_deg": 291.4148,
      "mean_motion_rev_day": 15.11047389
    },
    {
      "epoch": "2026-03-30T22:00:00.999936Z",
      "apogee_km": 534.0709097134768,
      "perigee_km": 531.8268801233962,
      "latitude_deg": -27.800213404925657,
      "longitude_deg": 176.48581378604806,
      "height_km": 539.3289040073577,
      "semi_major_axis_km": 6911.085894918436,
      "eccentricity": 0.00016235,
      "inclination_deg": 43.0004,
      "raan_deg": 120.5771,
      "arg_perigee_deg": 266.9285,
      "mean_anomaly_deg": 315.9252,
      "mean_motion_rev_day": 15.11065625
    },
    {
      "epoch": "2026-03-31T20:00:01.999008Z",
      "apogee_km": 534.0424553819712,
      "perigee_km": 531.7466107066948,
      "latitude_deg": 3.235511201633846,
      "longitude_deg": 162.85979260890628,
      "height_km": 532.3460017974356,
      "semi_major_axis_km": 6911.031533044333,
      "eccentricity": 0.0001661,
      "inclination_deg": 43.0005,
      "raan_deg": 115.5295,
      "arg_perigee_deg": 267.0143,
      "mean_anomaly_deg": 268.2015,
      "mean_motion_rev_day": 15.11083454
    },
    {
      "epoch": "2026-04-01T01:34:27.780384Z",
      "apogee_km": 533.969314655159,
      "perigee_km": 531.9048386069871,
      "latitude_deg": 2.1782544362375637e-05,
      "longitude_deg": -98.7986987244404,
      "height_km": 532.6482264584248,
      "semi_major_axis_km": 6911.074076631073,
      "eccentricity": 0.00014936,
      "inclination_deg": 43.002,
      "raan_deg": 114.251,
      "arg_perigee_deg": 273.7488,
      "mean_anomaly_deg": 86.3187,
      "mean_motion_rev_day": 15.11069501
    },
    {
      "epoch": "2026-04-02T17:14:07.823904Z",
      "apogee_km": 533.9105664995977,
      "perigee_km": 531.951969752412,
      "latitude_deg": -7.621978638186255e-06,
      "longitude_deg": 15.555599119853609,
      "height_km": 532.7165292856857,
      "semi_major_axis_km": 6911.068268126005,
      "eccentricity": 0.0001417,
      "inclination_deg": 43.0019,
      "raan_deg": 105.151,
      "arg_perigee_deg": 269.608,
      "mean_anomaly_deg": 90.4603,
      "mean_motion_rev_day": 15.11071406
    },
    {
      "epoch": "2026-04-02T17:14:07.824768Z",
      "apogee_km": 533.9104973889162,
      "perigee_km": 531.9520388630945,
      "latitude_deg": -8.40814550175503e-06,
      "longitude_deg": 15.555594671621913,
      "height_km": 532.7165288128832,
      "semi_major_axis_km": 6911.068268126005,
      "eccentricity": 0.00014169,
      "inclination_deg": 43.0019,
      "raan_deg": 105.151,
      "arg_perigee_deg": 269.608,
      "mean_anomaly_deg": 90.4603,
      "mean_motion_rev_day": 15.11071406
    },
    {
      "epoch": "2026-04-03T17:01:55.467264Z",
      "apogee_km": 533.8593791139419,
      "perigee_km": 531.9809537761012,
      "latitude_deg": 1.3228425739615177e-05,
      "longitude_deg": 12.171617192831802,
      "height_km": 532.7160965803598,
      "semi_major_axis_km": 6911.057166445021,
      "eccentricity": 0.0001359,
      "inclination_deg": 43.0034,
      "raan_deg": 99.6928,
      "arg_perigee_deg": 268.9473,
      "mean_anomaly_deg": 91.1217,
      "mean_motion_rev_day": 15.11075047
    },
    {
      "epoch": "2026-04-04T00:57:51.678144Z",
      "apogee_km": 533.8340691925796,
      "perigee_km": 532.0295891212872,
      "latitude_deg": -1.2376419648711398e-05,
      "longitude_deg": -108.95688936751537,
      "height_km": 532.7629336257172,
      "semi_major_axis_km": 6911.068829156933,
      "eccentricity": 0.00013055,
      "inclination_deg": 43.0041,
      "raan_deg": 97.8743,
      "arg_perigee_deg": 266.6705,
      "mean_anomaly_deg": 93.3991,
      "mean_motion_rev_day": 15.11071222
    },
    {
      "epoch": "2026-04-05T07:06:24.983136Z",
      "apogee_km": 533.878295461287,
      "perigee_km": 532.0040110661221,
      "latitude_deg": -2.6433656860589144e-05,
      "longitude_deg": 150.7514114332705,
      "height_km": 532.7722216403317,
      "semi_major_axis_km": 6911.078153263705,
      "eccentricity": 0.0001356,
      "inclination_deg": 43.0043,
      "raan_deg": 90.9593,
      "arg_perigee_deg": 266.8009,
      "mean_anomaly_deg": 93.2681,
      "mean_motion_rev_day": 15.11068164
    },
    {
      "epoch": "2026-04-06T00:33:15.830496Z",
      "apogee_km": 533.5241617588754,
      "perigee_km": 531.6484532387549,
      "latitude_deg": -2.316743511650826e-05,
      "longitude_deg": -115.68419202314072,
      "height_km": 531.527454344034,
      "semi_major_axis_km": 6910.723307498815,
      "eccentricity": 0.00013571,
      "inclination_deg": 43.0057,
      "raan_deg": 86.9521,
      "arg_perigee_deg": 333.2161,
      "mean_anomaly_deg": 26.8614,
      "mean_motion_rev_day": 15.11184549
    },
    {
      "epoch": "2026-04-08T14:00:04.999680Z",
      "apogee_km": 516.1771015957547,
      "perigee_km": 513.1157407670726,
      "latitude_deg": -38.379987392075265,
      "longitude_deg": -31.716298274944556,
      "height_km": 524.6695495510598,
      "semi_major_axis_km": 6892.783421181413,
      "eccentricity": 0.00022207,
      "inclination_deg": 43.0011,
      "raan_deg": 72.7817,
      "arg_perigee_deg": 267.8273,
      "mean_anomaly_deg": 27.0752,
      "mean_motion_rev_day": 15.17088139
    },
    {
      "epoch": "2026-04-09T20:00:01.999008Z",
      "apogee_km": 508.84370003749154,
      "perigee_km": 505.26202427119915,
      "latitude_deg": -38.166423632064905,
      "longitude_deg": -129.21962174667257,
      "height_km": 516.8661964640862,
      "semi_major_axis_km": 6885.189862154345,
      "eccentricity": 0.0002601,
      "inclination_deg": 43.0006,
      "raan_deg": 65.8151,
      "arg_perigee_deg": 261.4024,
      "mean_anomaly_deg": 34.074,
      "mean_motion_rev_day": 15.19598587
    },
    {
      "epoch": "2026-04-10T06:00:00.999648Z",
      "apogee_km": 505.8869882374538,
      "perigee_km": 503.32302918436926,
      "latitude_deg": 35.55239480570179,
      "longitude_deg": -175.34121166534732,
      "height_km": 506.31544790543643,
      "semi_major_axis_km": 6882.742008710911,
      "eccentricity": 0.00018626,
      "inclination_deg": 42.9999,
      "raan_deg": 63.4933,
      "arg_perigee_deg": 321.7707,
      "mean_anomaly_deg": 96.3934,
      "mean_motion_rev_day": 15.20409329
    }
  ]
}